SL-16 R/B               
1 25400U 98043G   26022.49373058  .00000164  00000+0  87460-4 0  9995
2 25400  98.8183 335.5519 0010416 143.3060 216.8834 14.26036988432402
SL-16 R/B               
1 25407U 98045B   26022.16717143  .00000345  00000+0  19814-3 0  9993
2 25407  71.0112 279.4105 0005196  99.7364 260.4347 14.16184912420514
ISS (ZARYA)             
1 25544U 98067A   26022.23890398  .00015740  00000+0  28748-3 0  9992
2 25544  51.6328 301.9816 0007710  45.6250 314.5369 15.49550203549139
CZ-4B R/B               
1 25732U 99025C   26022.37568956  .00000152  00000+0  94094-4 0  9992
2 25732  98.6712  67.7356 0038094 117.5107 253.3977 14.18254705381605
OKEAN-O                 
1 25860U 99039A   26022.41685236  .00001625  00000+0  22049-3 0  9991
2 25860  97.9538  82.7556 0001839 101.3656 258.7763 14.80247621427545
SL-16 R/B               
1 25861U 99039B   26022.44054534  .00001181  00000+0  15668-3 0  9992
2 25861  98.0063  81.5828 0015845  51.0757 309.1865 14.81656645430016
DELTA 2 R/B             
1 25876U 99041E   26022.49636766  .00003764  00000+0  64238-3 0  9995
2 25876  51.7629 125.7358 0503129 211.9454 145.0040 14.11604880356503
HELIOS 1B               
1 25977U 99064A   26022.43658854  .00003046  00000+0  34255-3 0  9997
2 25977  98.1738 283.3119 0001076 136.9083 223.2217 14.87481784678382
TERRA                   
1 25994U 99068A   26022.49505199  .00000964  00000+0  20578-3 0  9998
2 25994  97.9687  77.6720 0001824   3.4046 105.2496 14.60956908388338
SL-16 R/B               
1 26070U 00006B   26022.45306722  .00000084  00000+0  67003-4 0  9993
2 26070  71.0003 195.0534 0018730 253.8170 106.0892 14.15812888342012
TITAN 4B R/B            
1 26474U 00047B   26022.50838703  .00005557  00000+0  35202-3 0  9996
2 26474  67.9891 170.3278 0036871  93.3468 267.1900 15.09135464385943
ENVISAT                 
1 27386U 02009A   26022.45246554  .00000265  00000+0  99565-4 0  9994
2 27386  98.3655 337.1733 0001210  91.6688  18.4193 14.39016974252529
