CCSDS_OMM_VERS = 2.0
CREATION_DATE  = 
ORIGINATOR     = 

OBJECT_NAME    = SL-16 R/B
OBJECT_ID      = 1998-043G
CENTER_NAME    = EARTH
REF_FRAME      = TEME
TIME_SYSTEM    = UTC
MEAN_ELEMENT_THEORY = SGP/SGP4

EPOCH          = 2026-01-22T11:50:58.322112
MEAN_MOTION    = 14.26036988
ECCENTRICITY   = .0010416
INCLINATION    = 98.8183
RA_OF_ASC_NODE = 335.5519
ARG_OF_PERICENTER = 143.3060
MEAN_ANOMALY   = 216.8834

EPHEMERIS_TYPE = 0
CLASSIFICATION_TYPE = U
NORAD_CAT_ID   = 25400
ELEMENT_SET_NO = 999
REV_AT_EPOCH   = 43240
BSTAR          = .8746E-4
MEAN_MOTION_DOT = .164E-5
MEAN_MOTION_DDOT = 0

CCSDS_OMM_VERS = 2.0
CREATION_DATE  = 
ORIGINATOR     = 

OBJECT_NAME    = SL-16 R/B
OBJECT_ID      = 1998-045B
CENTER_NAME    = EARTH
REF_FRAME      = TEME
TIME_SYSTEM    = UTC
MEAN_ELEMENT_THEORY = SGP/SGP4

EPOCH          = 2026-01-22T04:00:43.611552
MEAN_MOTION    = 14.16184912
ECCENTRICITY   = .00051964
INCLINATION    = 71.0112
RA_OF_ASC_NODE = 279.4105
ARG_OF_PERICENTER = 99.7364
MEAN_ANOMALY   = 260.4347

EPHEMERIS_TYPE = 0
CLASSIFICATION_TYPE = U
NORAD_CAT_ID   = 25407
ELEMENT_SET_NO = 999
REV_AT_EPOCH   = 42051
BSTAR          = .1981358E-3
MEAN_MOTION_DOT = .345E-5
MEAN_MOTION_DDOT = 0

CCSDS_OMM_VERS = 2.0
CREATION_DATE  = 
ORIGINATOR     = 

OBJECT_NAME    = ISS (ZARYA)
OBJECT_ID      = 1998-067A
CENTER_NAME    = EARTH
REF_FRAME      = TEME
TIME_SYSTEM    = UTC
MEAN_ELEMENT_THEORY = SGP/SGP4

EPOCH          = 2026-01-22T05:44:01.303872
MEAN_MOTION    = 15.49550203
ECCENTRICITY   = .000771
INCLINATION    = 51.6328
RA_OF_ASC_NODE = 301.9816
ARG_OF_PERICENTER = 45.6250
MEAN_ANOMALY   = 314.5369

EPHEMERIS_TYPE = 0
CLASSIFICATION_TYPE = U
NORAD_CAT_ID   = 25544
ELEMENT_SET_NO = 999
REV_AT_EPOCH   = 54913
BSTAR          = .28748E-3
MEAN_MOTION_DOT = .1574E-3
MEAN_MOTION_DDOT = 0

CCSDS_OMM_VERS = 2.0
CREATION_DATE  = 
ORIGINATOR     = 

OBJECT_NAME    = CZ-4B R/B
OBJECT_ID      = 1999-025C
CENTER_NAME    = EARTH
REF_FRAME      = TEME
TIME_SYSTEM    = UTC
MEAN_ELEMENT_THEORY = SGP/SGP4

EPOCH          = 2026-01-22T09:00:59.577984
MEAN_MOTION    = 14.18254705
ECCENTRICITY   = .0038094
INCLINATION    = 98.6712
RA_OF_ASC_NODE = 67.7356
ARG_OF_PERICENTER = 117.5107
MEAN_ANOMALY   = 253.3977

EPHEMERIS_TYPE = 0
CLASSIFICATION_TYPE = U
NORAD_CAT_ID   = 25732
ELEMENT_SET_NO = 999
REV_AT_EPOCH   = 38160
BSTAR          = .94094E-4
MEAN_MOTION_DOT = .152E-5
MEAN_MOTION_DDOT = 0

CCSDS_OMM_VERS = 2.0
CREATION_DATE  = 
ORIGINATOR     = 

OBJECT_NAME    = OKEAN-O
OBJECT_ID      = 1999-039A
CENTER_NAME    = EARTH
REF_FRAME      = TEME
TIME_SYSTEM    = UTC
MEAN_ELEMENT_THEORY = SGP/SGP4

EPOCH          = 2026-01-22T10:00:16.043904
MEAN_MOTION    = 14.80247621
ECCENTRICITY   = .0001839
INCLINATION    = 97.9538
RA_OF_ASC_NODE = 82.7556
ARG_OF_PERICENTER = 101.3656
MEAN_ANOMALY   = 258.7763

EPHEMERIS_TYPE = 0
CLASSIFICATION_TYPE = U
NORAD_CAT_ID   = 25860
ELEMENT_SET_NO = 999
REV_AT_EPOCH   = 42754
BSTAR          = .22049E-3
MEAN_MOTION_DOT = .1625E-4
MEAN_MOTION_DDOT = 0

CCSDS_OMM_VERS = 2.0
CREATION_DATE  = 
ORIGINATOR     = 

OBJECT_NAME    = SL-16 R/B
OBJECT_ID      = 1999-039B
CENTER_NAME    = EARTH
REF_FRAME      = TEME
TIME_SYSTEM    = UTC
MEAN_ELEMENT_THEORY = SGP/SGP4

EPOCH          = 2026-01-22T10:34:23.117376
MEAN_MOTION    = 14.81656645
ECCENTRICITY   = .0015845
INCLINATION    = 98.0063
RA_OF_ASC_NODE = 81.5828
ARG_OF_PERICENTER = 51.0757
MEAN_ANOMALY   = 309.1865

EPHEMERIS_TYPE = 0
CLASSIFICATION_TYPE = U
NORAD_CAT_ID   = 25861
ELEMENT_SET_NO = 999
REV_AT_EPOCH   = 43001
BSTAR          = .15668E-3
MEAN_MOTION_DOT = .1181E-4
MEAN_MOTION_DDOT = 0

CCSDS_OMM_VERS = 2.0
CREATION_DATE  = 
ORIGINATOR     = 

OBJECT_NAME    = DELTA 2 R/B
OBJECT_ID      = 1999-041E
CENTER_NAME    = EARTH
REF_FRAME      = TEME
TIME_SYSTEM    = UTC
MEAN_ELEMENT_THEORY = SGP/SGP4

EPOCH          = 2026-01-22T11:54:46.165824
MEAN_MOTION    = 14.11604880
ECCENTRICITY   = .0503129
INCLINATION    = 51.7629
RA_OF_ASC_NODE = 125.7358
ARG_OF_PERICENTER = 211.9454
MEAN_ANOMALY   = 145.0040

EPHEMERIS_TYPE = 0
CLASSIFICATION_TYPE = U
NORAD_CAT_ID   = 25876
ELEMENT_SET_NO = 999
REV_AT_EPOCH   = 35650
BSTAR          = .64238E-3
MEAN_MOTION_DOT = .3764E-4
MEAN_MOTION_DDOT = 0

CCSDS_OMM_VERS = 2.0
CREATION_DATE  = 
ORIGINATOR     = 

OBJECT_NAME    = HELIOS 1B
OBJECT_ID      = 1999-064A
CENTER_NAME    = EARTH
REF_FRAME      = TEME
TIME_SYSTEM    = UTC
MEAN_ELEMENT_THEORY = SGP/SGP4

EPOCH          = 2026-01-22T10:28:41.249856
MEAN_MOTION    = 14.87481784
ECCENTRICITY   = .0001076
INCLINATION    = 98.1738
RA_OF_ASC_NODE = 283.3119
ARG_OF_PERICENTER = 136.9083
MEAN_ANOMALY   = 223.2217

EPHEMERIS_TYPE = 0
CLASSIFICATION_TYPE = U
NORAD_CAT_ID   = 25977
ELEMENT_SET_NO = 999
REV_AT_EPOCH   = 67838
BSTAR          = .34255E-3
MEAN_MOTION_DOT = .3046E-4
MEAN_MOTION_DDOT = 0

CCSDS_OMM_VERS = 2.0
CREATION_DATE  = 
ORIGINATOR     = 

OBJECT_NAME    = TERRA
OBJECT_ID      = 1999-068A
CENTER_NAME    = EARTH
REF_FRAME      = TEME
TIME_SYSTEM    = UTC
MEAN_ELEMENT_THEORY = SGP/SGP4

EPOCH          = 2026-01-22T11:52:52.491936
MEAN_MOTION    = 14.60956908
ECCENTRICITY   = .0001824
INCLINATION    = 97.9687
RA_OF_ASC_NODE = 77.6720
ARG_OF_PERICENTER = 3.4046
MEAN_ANOMALY   = 105.2496

EPHEMERIS_TYPE = 0
CLASSIFICATION_TYPE = U
NORAD_CAT_ID   = 25994
ELEMENT_SET_NO = 999
REV_AT_EPOCH   = 38833
BSTAR          = .20578E-3
MEAN_MOTION_DOT = .964E-5
MEAN_MOTION_DDOT = 0

CCSDS_OMM_VERS = 2.0
CREATION_DATE  = 
ORIGINATOR     = 

OBJECT_NAME    = SL-16 R/B
OBJECT_ID      = 2000-006B
CENTER_NAME    = EARTH
REF_FRAME      = TEME
TIME_SYSTEM    = UTC
MEAN_ELEMENT_THEORY = SGP/SGP4

EPOCH          = 2026-01-22T10:52:25.007808
MEAN_MOTION    = 14.15812888
ECCENTRICITY   = .001873
INCLINATION    = 71.0003
RA_OF_ASC_NODE = 195.0534
ARG_OF_PERICENTER = 253.8170
MEAN_ANOMALY   = 106.0892

EPHEMERIS_TYPE = 0
CLASSIFICATION_TYPE = U
NORAD_CAT_ID   = 26070
ELEMENT_SET_NO = 999
REV_AT_EPOCH   = 34201
BSTAR          = .67003E-4
MEAN_MOTION_DOT = .84E-6
MEAN_MOTION_DDOT = 0

CCSDS_OMM_VERS = 2.0
CREATION_DATE  = 
ORIGINATOR     = 

OBJECT_NAME    = TITAN 4B R/B
OBJECT_ID      = 2000-047B
CENTER_NAME    = EARTH
REF_FRAME      = TEME
TIME_SYSTEM    = UTC
MEAN_ELEMENT_THEORY = SGP/SGP4

EPOCH          = 2026-01-22T12:12:04.639392
MEAN_MOTION    = 15.09135464
ECCENTRICITY   = .0036871
INCLINATION    = 67.9891
RA_OF_ASC_NODE = 170.3278
ARG_OF_PERICENTER = 93.3468
MEAN_ANOMALY   = 267.1900

EPHEMERIS_TYPE = 0
CLASSIFICATION_TYPE = U
NORAD_CAT_ID   = 26474
ELEMENT_SET_NO = 999
REV_AT_EPOCH   = 38594
BSTAR          = .35202E-3
MEAN_MOTION_DOT = .5557E-4
MEAN_MOTION_DDOT = 0

CCSDS_OMM_VERS = 2.0
CREATION_DATE  = 
ORIGINATOR     = 

OBJECT_NAME    = ENVISAT
OBJECT_ID      = 2002-009A
CENTER_NAME    = EARTH
REF_FRAME      = TEME
TIME_SYSTEM    = UTC
MEAN_ELEMENT_THEORY = SGP/SGP4

EPOCH          = 2026-01-22T10:51:33.022656
MEAN_MOTION    = 14.39016974
ECCENTRICITY   = .000121
INCLINATION    = 98.3655
RA_OF_ASC_NODE = 337.1733
ARG_OF_PERICENTER = 91.6688
MEAN_ANOMALY   = 18.4193

EPHEMERIS_TYPE = 0
CLASSIFICATION_TYPE = U
NORAD_CAT_ID   = 27386
ELEMENT_SET_NO = 999
REV_AT_EPOCH   = 25252
BSTAR          = .99565E-4
MEAN_MOTION_DOT = .265E-5
MEAN_MOTION_DDOT = 0

